SWARM A                 
1 39452U 13067B   26165.18707809  .00010535  00000+0  18148-3 0  9998
2 39452  87.3334  57.3568 0003017  94.9583 265.2023 15.50901979705789
SWARM C                 
1 39453U 13067C   26165.18696250  .00010455  00000+0  18011-3 0  9996
2 39453  87.3333  55.9378 0003011  95.5553 264.6051 15.50899593705748
BRITE-CA1 (TORONTO)     
1 40020U 14033L   26164.91233455  .00000658  00000+0  10669-3 0  9991
2 40020  97.9734 293.9007 0077282 287.6929  71.5853 14.72672671641739
OCO 2                   
1 40059U 14035A   26165.13401852  .00000347  00000+0  87125-4 0  9995
2 40059  98.2018 106.4735 0001500  86.4597 273.6773 14.57108990635608
BRITE-PL2 (HEWELIUSZ)   
1 40119U 14049B   26165.09268211  .00001464  00000+0  14052-3 0  9991
2 40119  97.9095 277.0688 0015194 117.6671 242.6093 14.94584537640986
MMS 1                   
1 40482U 15011A   26165.25002315 -.00000462  00000+0  00000+0 0  9995
2 40482  72.1315 348.8184 8313507 167.3019 358.9956  0.28524683  1395
MMS 2                   
1 40483U 15011B   26165.25002315 -.00000462  00000+0  00000+0 0  9996
2 40483  72.1316 348.8206 8314259 167.3074 358.9841  0.28525568  1394
MMS 3                   
1 40484U 15011C   26165.25002315 -.00000462  00000+0  00000+0 0  9997
2 40484  72.1347 348.8251 8313432 167.3018 358.9799  0.28525669  1393
MMS 4                   
1 40485U 15011D   26165.25002315 -.00000462  00000+0  00000+0 0  9998
2 40485  72.1311 348.8207 8313248 167.3103 358.9679  0.28521048  1390
ASTROSAT                
1 40930U 15052A   26164.99689022  .00001495  00000+0  10025-3 0  9992
2 40930   5.9956 178.3215 0008040 345.5019  14.4878 14.82502540579350
DAMPE                   
1 41173U 15078A   26165.16147300  .00001218  00000+0  43471-4 0  9993
2 41173  97.4555 170.6136 0013833  86.6847 273.5976 15.30778039584081
PISAT                   
1 41784U 16059B   26164.94257177  .00000816  00000+0  14659-3 0  9998
2 41784  97.8179 165.5348 0028122 213.4292 146.5139 14.68978670519265
HXMT (HUIYAN)           
1 42758U 17034A   26165.17430392  .00003625  00000+0  18233-3 0  9995
2 42758  43.0126 199.8180 0030297 127.4337 232.9275 15.18462716497201
FLYING LAPTOP           
1 42831U 17042G   26165.18591167  .00003083  00000+0  24429-3 0  9997
2 42831  97.4668 320.8343 0019513 131.5307 228.7595 15.01127303486001
ZHANGHENG 1-01 (CSES-1) 
1 43194U 18015C   26165.17812992  .00006926  00000+0  31647-3 0  9991
2 43194  97.6860 330.7760 0017011 277.7664  82.1639 15.20777982464184
SALSAT                  
1 46495U 20068K   26165.00581426  .00008178  00000+0  28632-3 0  9997
2 46495  97.8843 167.8766 0008281 321.5879  38.4769 15.29759103314876
IXPE                    
1 49954U 21121A   26165.16668980  .00013281  00000+0  73230-3 0  9994
2 49954   0.2327 340.4197 0006976  30.4067  16.3965 15.10225904  5861
SMILE                   
1 69123U 26109A   26144.65318427 -.00001976  00000+0 -42379-3 0  9994
2 69123  70.0007 229.2745 0009123 259.5159 100.4951 14.57062785   802
